{"type": "FeatureCollection", "features": [ {"type": "Feature", "properties": {"norad_id": 66383, "name": "STARLINK-35690", "group": "last-30-days", "lat": 52.986582565702086, "lon": 49.9396783852514, "alt_km": 421.91861044726556, "timestamp": "2025-12-02T06:27:51.800245+00:00", "meta": {"OBJECT_NAME": "STARLINK-35690", "OBJECT_ID": "2025-257D", "EPOCH": "2025-12-01T20:00:01.999008", "MEAN_MOTION": 15.47394492, "ECCENTRICITY": 0.0001539, "INCLINATION": 53.1588, "RA_OF_ASC_NODE": 315.9872, "ARG_OF_PERICENTER": 89.6422, "MEAN_ANOMALY": 95.378, "EPHEMERIS_TYPE": 0, "CLASSIFICATION_TYPE": "U", "NORAD_CAT_ID": 66383, "ELEMENT_SET_NO": 999, "REV_AT_EPOCH": 474, "BSTAR": -0.044026, "MEAN_MOTION_DOT": -0.02039743, "MEAN_MOTION_DDOT": 0}, "tle": {"line1": "1 66383U 25257D   25335.83335647 -.02039743  00000+0 -44026-1 0  9990", "line2": "2 66383  53.1588 315.9872 0001539  89.6422  95.3780 15.47394492  4747"}}, "geometry": {"type": "Point", "coordinates": [49.9396783852514, 52.986582565702086]}}, {"type": "Feature", "properties": {"norad_id": 66384, "name": "STARLINK-35662", "group": "last-30-days", "lat": 52.78735009173083, "lon": 53.047555373354776, "alt_km": 421.93691115018464, "timestamp": "2025-12-02T06:27:51.800255+00:00", "meta": {"OBJECT_NAME": "STARLINK-35662", "OBJECT_ID": "2025-257E", "EPOCH": "2025-12-01T20:00:01.999008", "MEAN_MOTION": 15.47386922, "ECCENTRICITY": 0.0001612, "INCLINATION": 53.1589, "RA_OF_ASC_NODE": 315.9844, "ARG_OF_PERICENTER": 82.4326, "MEAN_ANOMALY": 104.482, "EPHEMERIS_TYPE": 0, "CLASSIFICATION_TYPE": "U", "NORAD_CAT_ID": 66384, "ELEMENT_SET_NO": 999, "REV_AT_EPOCH": 474, "BSTAR": -0.044066, "MEAN_MOTION_DOT": -0.02040975, "MEAN_MOTION_DDOT": 0}, "tle": {"line1": "1 66384U 25257E   25335.83335647 -.02040975  00000+0 -44066-1 0  9994", "line2": "2 66384  53.1589 315.9844 0001612  82.4326 104.4820 15.47386922  4740"}}, "geometry": {"type": "Point", "coordinates": [53.047555373354776, 52.78735009173083]}}, {"type": "Feature", "properties": {"norad_id": 66385, "name": "STARLINK-35659", "group": "last-30-days", "lat": 51.91592128455505, "lon": 27.02209590297038, "alt_km": 430.4875730028534, "timestamp": "2025-12-02T06:27:51.800282+00:00", "meta": {"OBJECT_NAME": "STARLINK-35659", "OBJECT_ID": "2025-257F", "EPOCH": "2025-12-01T20:00:01.999008", "MEAN_MOTION": 15.44556385, "ECCENTRICITY": 0.0001428, "INCLINATION": 53.1593, "RA_OF_ASC_NODE": 316.0074, "ARG_OF_PERICENTER": 85.707, "MEAN_ANOMALY": 89.83, "EPHEMERIS_TYPE": 0, "CLASSIFICATION_TYPE": "U", "NORAD_CAT_ID": 66385, "ELEMENT_SET_NO": 999, "REV_AT_EPOCH": 474, "BSTAR": -0.04839, "MEAN_MOTION_DOT": -0.02032493, "MEAN_MOTION_DDOT": 0}, "tle": {"line1": "1 66385U 25257F   25335.83335647 -.02032493  00000+0 -48390-1 0  9995", "line2": "2 66385  53.1593 316.0074 0001428  85.7070  89.8300 15.44556385  4748"}}, "geometry": {"type": "Point", "coordinates": [27.02209590297038, 51.91592128455505]}}, {"type": "Feature", "properties": {"norad_id": 66386, "name": "STARLINK-35651", "group": "last-30-days", "lat": 51.215179516526675, "lon": 64.98499516536972, "alt_km": 413.2902534725072, "timestamp": "2025-12-02T06:27:51.800294+00:00", "meta": {"OBJECT_NAME": "STARLINK-35651", "OBJECT_ID": "2025-257G", "EPOCH": "2025-12-01T20:00:01.999008", "MEAN_MOTION": 15.49701389, "ECCENTRICITY": 0.0001587, "INCLINATION": 53.159, "RA_OF_ASC_NODE": 315.9776, "ARG_OF_PERICENTER": 105.9114, "MEAN_ANOMALY": 84.3149, "EPHEMERIS_TYPE": 0, "CLASSIFICATION_TYPE": "U", "NORAD_CAT_ID": 66386, "ELEMENT_SET_NO": 999, "REV_AT_EPOCH": 474, "BSTAR": -0.025634, "MEAN_MOTION_DOT": -0.01306253, "MEAN_MOTION_DDOT": 0}, "tle": {"line1": "1 66386U 25257G   25335.83335647 -.01306253  00000+0 -25634-1 0  9999", "line2": "2 66386  53.1590 315.9776 0001587 105.9114  84.3149 15.49701389  4745"}}, "geometry": {"type": "Point", "coordinates": [64.98499516536972, 51.215179516526675]}}, {"type": "Feature", "properties": {"norad_id": 66387, "name": "STARLINK-35661", "group": "last-30-days", "lat": 50.626796986586676, "lon": 67.87614040525462, "alt_km": 413.5785413419244, "timestamp": "2025-12-02T06:27:51.800305+00:00", "meta": {"OBJECT_NAME": "STARLINK-35661", "OBJECT_ID": "2025-257H", "EPOCH": "2025-12-01T20:00:01.999008", "MEAN_MOTION": 15.49696212, "ECCENTRICITY": 0.0001309, "INCLINATION": 53.1586, "RA_OF_ASC_NODE": 315.9743, "ARG_OF_PERICENTER": 91.2009, "MEAN_ANOMALY": 100.938, "EPHEMERIS_TYPE": 0, "CLASSIFICATION_TYPE": "U", "NORAD_CAT_ID": 66387, "ELEMENT_SET_NO": 999, "REV_AT_EPOCH": 474, "BSTAR": -0.0255, "MEAN_MOTION_DOT": -0.01299755, "MEAN_MOTION_DDOT": 0}, "tle": {"line1": "1 66387U 25257H   25335.83335647 -.01299755  00000+0 -25500-1 0  9990", "line2": "2 66387  53.1586 315.9743 0001309  91.2009 100.9380 15.49696212  4747"}}, "geometry": {"type": "Point", "coordinates": [67.87614040525462, 50.626796986586676]}}, {"type": "Feature", "properties": {"norad_id": 66388, "name": "STARLINK-35647", "group": "last-30-days", "lat": 49.81429520990294, "lon": 71.30383166447189, "alt_km": 411.3162394512037, "timestamp": "2025-12-02T06:27:51.800315+00:00", "meta": {"OBJECT_NAME": "STARLINK-35647", "OBJECT_ID": "2025-257J", "EPOCH": "2025-12-01T20:00:01.999008", "MEAN_MOTION": 15.49299136, "ECCENTRICITY": 0.0001149, "INCLINATION": 53.1588, "RA_OF_ASC_NODE": 315.9701, "ARG_OF_PERICENTER": 95.948, "MEAN_ANOMALY": 98.1849, "EPHEMERIS_TYPE": 0, "CLASSIFICATION_TYPE": "U", "NORAD_CAT_ID": 66388, "ELEMENT_SET_NO": 999, "REV_AT_EPOCH": 474, "BSTAR": -3.2226e-05, "MEAN_MOTION_DOT": -2.239e-05, "MEAN_MOTION_DDOT": 0}, "tle": {"line1": "1 66388U 25257J   25335.83335647 -.00002239  00000+0 -32226-4 0  9995", "line2": "2 66388  53.1588 315.9701 0001149  95.9480  98.1849 15.49299136  4742"}}, "geometry": {"type": "Point", "coordinates": [71.30383166447189, 49.81429520990294]}}, {"type": "Feature", "properties": {"norad_id": 66389, "name": "STARLINK-35694", "group": "last-30-days", "lat": 49.05911862998799, "lon": 74.07773128950315, "alt_km": 411.45686616906187, "timestamp": "2025-12-02T06:27:51.800328+00:00", "meta": {"OBJECT_NAME": "STARLINK-35694", "OBJECT_ID": "2025-257K", "EPOCH": "2025-12-01T20:00:01.999008", "MEAN_MOTION": 15.49209908, "ECCENTRICITY": 0.0001021, "INCLINATION": 53.1588, "RA_OF_ASC_NODE": 315.9649, "ARG_OF_PERICENTER": 90.2572, "MEAN_ANOMALY": 105.8819, "EPHEMERIS_TYPE": 0, "CLASSIFICATION_TYPE": "U", "NORAD_CAT_ID": 66389, "ELEMENT_SET_NO": 999, "REV_AT_EPOCH": 474, "BSTAR": 0.0022885, "MEAN_MOTION_DOT": 0.00128494, "MEAN_MOTION_DDOT": 0}, "tle": {"line1": "1 66389U 25257K   25335.83335647  .00128494  00000+0  22885-2 0  9994", "line2": "2 66389  53.1588 315.9649 0001021  90.2572 105.8819 15.49209908  4744"}}, "geometry": {"type": "Point", "coordinates": [74.07773128950315, 49.05911862998799]}}, {"type": "Feature", "properties": {"norad_id": 66390, "name": "STARLINK-35665", "group": "last-30-days", "lat": 28.216577152149185, "lon": 110.08638937582288, "alt_km": 414.5395012805657, "timestamp": "2025-12-02T06:27:51.800341+00:00", "meta": {"OBJECT_NAME": "STARLINK-35665", "OBJECT_ID": "2025-257L", "EPOCH": "2025-12-01T20:00:01.999008", "MEAN_MOTION": 15.49228335, "ECCENTRICITY": 0.0001496, "INCLINATION": 53.1586, "RA_OF_ASC_NODE": 315.8935, "ARG_OF_PERICENTER": 96.2784, "MEAN_ANOMALY": 134.2938, "EPHEMERIS_TYPE": 0, "CLASSIFICATION_TYPE": "U", "NORAD_CAT_ID": 66390, "ELEMENT_SET_NO": 999, "REV_AT_EPOCH": 484, "BSTAR": 0.0026638, "MEAN_MOTION_DOT": 0.00150155, "MEAN_MOTION_DDOT": 0}, "tle": {"line1": "1 66390U 25257L   25335.83335647  .00150155  00000+0  26638-2 0  9995", "line2": "2 66390  53.1586 315.8935 0001496  96.2784 134.2938 15.49228335  4842"}}, "geometry": {"type": "Point", "coordinates": [110.08638937582288, 28.216577152149185]}}, {"type": "Feature", "properties": {"norad_id": 66391, "name": "STARLINK-35656", "group": "last-30-days", "lat": -3.517745477528945, "lon": 136.35885122933684, "alt_km": 448.9408787215716, "timestamp": "2025-12-02T06:27:51.800352+00:00", "meta": {"OBJECT_NAME": "STARLINK-35656", "OBJECT_ID": "2025-257M", "EPOCH": "2025-12-01T20:00:01.999008", "MEAN_MOTION": 15.39578237, "ECCENTRICITY": 0.0001818, "INCLINATION": 53.1588, "RA_OF_ASC_NODE": 315.7722, "ARG_OF_PERICENTER": 68.8788, "MEAN_ANOMALY": 217.4824, "EPHEMERIS_TYPE": 0, "CLASSIFICATION_TYPE": "U", "NORAD_CAT_ID": 66391, "ELEMENT_SET_NO": 999, "REV_AT_EPOCH": 484, "BSTAR": 0.0025733, "MEAN_MOTION_DOT": 0.00103802, "MEAN_MOTION_DDOT": 0}, "tle": {"line1": "1 66391U 25257M   25335.83335647  .00103802  00000+0  25733-2 0  9998", "line2": "2 66391  53.1588 315.7722 0001818  68.8788 217.4824 15.39578237  4841"}}, "geometry": {"type": "Point", "coordinates": [136.35885122933684, -3.517745477528945]}}, {"type": "Feature", "properties": {"norad_id": 66392, "name": "STARLINK-35671", "group": "last-30-days", "lat": 47.40675008294982, "lon": 79.23201498780678, "alt_km": 411.59614271691134, "timestamp": "2025-12-02T06:27:51.800362+00:00", "meta": {"OBJECT_NAME": "STARLINK-35671", "OBJECT_ID": "2025-257N", "EPOCH": "2025-12-01T20:00:01.999008", "MEAN_MOTION": 15.4932347, "ECCENTRICITY": 0.0001246, "INCLINATION": 53.1589, "RA_OF_ASC_NODE": 315.9582, "ARG_OF_PERICENTER": 95.9682, "MEAN_ANOMALY": 103.9021, "EPHEMERIS_TYPE": 0, "CLASSIFICATION_TYPE": "U", "NORAD_CAT_ID": 66392, "ELEMENT_SET_NO": 999, "REV_AT_EPOCH": 474, "BSTAR": -0.00041067, "MEAN_MOTION_DOT": -0.00023232, "MEAN_MOTION_DDOT": 0}, "tle": {"line1": "1 66392U 25257N   25335.83335647 -.00023232  00000+0 -41067-3 0  9998", "line2": "2 66392  53.1589 315.9582 0001246  95.9682 103.9021 15.49323470  4743"}}, "geometry": {"type": "Point", "coordinates": [79.23201498780678, 47.40675008294982]}}]}